[{"OBJECT_NAME":"JINJUSAT-1B","OBJECT_ID":"2025-052A","EPOCH":"2026-03-09T15:55:38.242848","MEAN_MOTION":15.30194857,"ECCENTRICITY":0.00055504,"INCLINATION":97.4113,"RA_OF_ASC_NODE":325.4613,"ARG_OF_PERICENTER":82.193,"MEAN_ANOMALY":277.9941,"EPHEMERIS_TYPE":0,"CLASSIFICATION_TYPE":"U","NORAD_CAT_ID":63210,"ELEMENT_SET_NO":999,"REV_AT_EPOCH":5486,"BSTAR":0.00068430401,"MEAN_MOTION_DOT":0.00019955,"MEAN_MOTION_DDOT":0},{"OBJECT_NAME":"STARLINK-35338","OBJECT_ID":"2025-245S","EPOCH":"2026-03-09T20:43:36.848352","MEAN_MOTION":15.30211011,"ECCENTRICITY":7.57e-5,"INCLINATION":53.1583,"RA_OF_ASC_NODE":283.0517,"ARG_OF_PERICENTER":104.2506,"MEAN_ANOMALY":255.8579,"EPHEMERIS_TYPE":0,"CLASSIFICATION_TYPE":"U","NORAD_CAT_ID":66250,"ELEMENT_SET_NO":999,"REV_AT_EPOCH":2118,"BSTAR":0.00090178873,"MEAN_MOTION_DOT":0.00026453,"MEAN_MOTION_DDOT":0}]
